OBJECT_NAME,OBJECT_ID,EPOCH,MEAN_MOTION,ECCENTRICITY,INCLINATION,RA_OF_ASC_NODE,ARG_OF_PERICENTER,MEAN_ANOMALY,EPHEMERIS_TYPE,CLASSIFICATION_TYPE,NORAD_CAT_ID,ELEMENT_SET_NO,REV_AT_EPOCH,BSTAR,MEAN_MOTION_DOT,MEAN_MOTION_DDOT
COSMOS 2507 (RODNIK-S 13),2015-050A,2026-06-14T06:05:39.962400,12.42926566,.00103435,82.4927,81.4962,3.1388,356.9755,0,U,40920,999,48649,.2207942E-5,.1E-6,0
COSMOS 2508 (RODNIK-S 14),2015-050B,2026-06-14T05:00:51.397344,12.42913879,.0015274,82.4880,80.0305,33.0456,327.1575,0,U,40921,999,48647,-.1765463E-3,-.15E-6,0
COSMOS 2509 (RODNIK-S 15),2015-050C,2026-06-14T05:30:02.289024,12.42883234,.00157942,82.4888,80.1198,48.9020,311.3421,0,U,40922,999,48651,-.39590605E-3,-.45E-6,0
LINGQIAO VIDEO A,2015-057B,2026-06-14T05:54:20.782368,14.77389788,.00152345,97.6614,160.1930,281.1075,78.8423,0,U,40959,999,57497,.10067396E-3,.669E-5,0
LINGQIAO VIDEO B,2015-057C,2026-06-14T06:58:34.900608,14.77497727,.00153492,97.6581,161.3995,280.8780,79.0704,0,U,40960,999,57502,.17417681E-3,.1195E-4,0
JILIN-1,2015-057D,2026-06-14T07:19:56.737056,14.78156189,.00153166,97.6507,164.8153,273.3964,86.5496,0,U,40961,999,57518,.10929521E-3,.744E-5,0
FOX-1A (AO-85),2015-058D,2026-06-14T01:34:52.871808,14.90956726,.01302584,64.7761,288.6834,57.8004,303.5661,0,U,40967,999,11310,.22792156E-3,.2476E-4,0
SINOD-D 1,2015-058E,2026-06-14T00:04:22.087488,14.95888248,.01188419,64.7761,268.8837,54.3509,306.8602,0,U,40968,999,11618,.28236074E-3,.347E-4,0
ELEKTRO-L 2,2015-074A,2026-06-14T01:03:32.621184,1.00270718,.00007046,6.6845,70.5612,243.9352,309.2359,0,U,41105,999,3847,0,-.114E-5,0
DAMPE,2015-078A,2026-06-14T07:00:46.886112,15.30779298,.00138119,97.4554,170.7450,86.1206,274.1614,0,U,41173,999,58410,.53026478E-4,.1503E-4,0
ORBCOMM FM114,2015-081A,2026-06-13T06:43:33.452256,14.58854678,.00022521,47.0060,20.4759,192.2086,167.8745,0,U,41179,999,55718,.12794477E-3,.433E-5,0
ORBCOMM FM110,2015-081D,2026-06-14T07:06:13.757184,14.58876713,.00025892,47.0033,15.1133,58.4001,301.7137,0,U,41182,999,55720,.17013526E-3,.633E-5,0
ORBCOMM FM112,2015-081F,2026-06-14T01:27:43.252128,14.58900185,.00035535,46.9998,285.0310,204.6631,155.4085,0,U,41184,999,55849,.15666622E-3,.57E-5,0
ORBCOMM FM113,2015-081G,2026-06-12T01:13:53.961600,14.58853293,.0001998,47.0017,294.9070,204.7602,155.3188,0,U,41185,999,55818,.10704795E-3,.335E-5,0
ORBCOMM FM108,2015-081J,2026-06-13T09:12:13.186080,14.58866983,.00027346,47.0056,200.1825,209.5581,150.5151,0,U,41187,999,55952,.11596101E-3,.377E-5,0
ORBCOMM FM117,2015-081K,2026-06-13T19:52:53.295168,14.58863203,.00033108,46.9996,196.7126,211.3571,148.7118,0,U,41188,999,55963,.10492082E-3,.325E-5,0
ORBCOMM FM116,2015-081L,2026-06-14T00:20:39.074496,14.58879012,.00007162,47.0030,285.6241,38.4671,321.6265,0,U,41189,999,55847,.16222606E-3,.596E-5,0
HORYU-4,2016-012D,2026-06-14T04:23:58.368480,15.93563943,.00046123,30.9846,101.0543,251.9494,108.0665,0,U,41340,999,57033,.1134375E-2,.430944E-2,.66472476E-4
ZIYUAN 3-02 (ZY 3-02),2016-033A,2026-06-14T07:06:06.008832,15.21456592,.001126,97.3842,241.1256,301.3530,58.6604,0,U,41556,999,55754,.2384522E-3,.5298E-4,0
CARTOSAT-2C,2016-040A,2026-06-14T05:28:48.411840,15.19297587,.00103528,97.4493,225.2468,140.6492,219.5496,0,U,41599,999,55326,.20422215E-3,.4247E-4,0
LAPAN-A3,2016-040E,2026-06-14T06:05:46.817376,15.33087599,.00112316,97.1482,161.4960,35.5821,324.6168,0,U,41603,999,55436,.10443456E-3,.3268E-4,0
GAOFEN-3,2016-049A,2026-06-14T07:24:45.074592,14.42215784,.00013309,98.4009,173.1381,98.5669,261.5671,0,U,41727,999,51823,.79808954E-4,.22E-5,0
CAS-2T & KS-1Q,2016-066G,2026-06-14T04:38:06.159840,14.44685244,.03427028,98.3820,240.9636,138.5317,224.2432,0,U,41847,999,50436,.2324134E-3,.1608E-4,0
YUNHAI-1 01,2016-068A,2026-06-14T07:16:20.794944,14.32703786,.00062877,98.5830,176.3367,50.1403,310.0333,0,U,41857,999,50141,.12593847E-3,.299E-5,0
RESOURCESAT-2A,2016-074A,2026-06-14T07:49:17.259744,14.21615975,.00033431,98.7532,238.8534,89.5029,270.6531,0,U,41877,999,49389,.13713598E-3,.257E-5,0
